[{"OBJECT_NAME":"STARLINK-34069","OBJECT_ID":"2025-157S","EPOCH":"2026-03-22T20:07:05.838528","MEAN_MOTION":15.3018207,"ECCENTRICITY":9.945e-5,"INCLINATION":53.1574,"RA_OF_ASC_NODE":284.8252,"ARG_OF_PERICENTER":81.569,"MEAN_ANOMALY":278.5424,"EPHEMERIS_TYPE":0,"CLASSIFICATION_TYPE":"U","NORAD_CAT_ID":64920,"ELEMENT_SET_NO":999,"REV_AT_EPOCH":3813,"BSTAR":0.0011087864,"MEAN_MOTION_DOT":0.00032606,"MEAN_MOTION_DDOT":0},{"OBJECT_NAME":"STARLINK-34699","OBJECT_ID":"2025-157T","EPOCH":"2026-03-22T19:57:58.108320","MEAN_MOTION":15.30196241,"ECCENTRICITY":0.00011276,"INCLINATION":53.159,"RA_OF_ASC_NODE":284.7849,"ARG_OF_PERICENTER":96.6732,"MEAN_ANOMALY":263.4398,"EPHEMERIS_TYPE":0,"CLASSIFICATION_TYPE":"U","NORAD_CAT_ID":64921,"ELEMENT_SET_NO":999,"REV_AT_EPOCH":3813,"BSTAR":0.00087280265,"MEAN_MOTION_DOT":0.00025577,"MEAN_MOTION_DDOT":0},{"OBJECT_NAME":"STARLINK-34700","OBJECT_ID":"2025-157U","EPOCH":"2026-03-22T19:29:06.294624","MEAN_MOTION":15.30188737,"ECCENTRICITY":0.00011412,"INCLINATION":53.1591,"RA_OF_ASC_NODE":284.6579,"ARG_OF_PERICENTER":102.5428,"MEAN_ANOMALY":257.5701,"EPHEMERIS_TYPE":0,"CLASSIFICATION_TYPE":"U","NORAD_CAT_ID":64922,"ELEMENT_SET_NO":999,"REV_AT_EPOCH":3808,"BSTAR":0.0012503988,"MEAN_MOTION_DOT":0.00036845,"MEAN_MOTION_DDOT":0},{"OBJECT_NAME":"STARLINK-34643","OBJECT_ID":"2025-157V","EPOCH":"2026-03-22T20:10:07.970592","MEAN_MOTION":15.30173417,"ECCENTRICITY":0.00011546,"INCLINATION":53.1573,"RA_OF_ASC_NODE":284.8334,"ARG_OF_PERICENTER":99.3201,"MEAN_ANOMALY":260.793,"EPHEMERIS_TYPE":0,"CLASSIFICATION_TYPE":"U","NORAD_CAT_ID":64923,"ELEMENT_SET_NO":999,"REV_AT_EPOCH":3813,"BSTAR":0.0011329999,"MEAN_MOTION_DOT":0.0003332,"MEAN_MOTION_DDOT":0},{"OBJECT_NAME":"STARLINK-34199","OBJECT_ID":"2025-157W","EPOCH":"2026-03-22T20:40:21.879840","MEAN_MOTION":15.3018531,"ECCENTRICITY":0.00013927,"INCLINATION":53.1572,"RA_OF_ASC_NODE":284.2548,"ARG_OF_PERICENTER":97.0084,"MEAN_ANOMALY":263.1076,"EPHEMERIS_TYPE":0,"CLASSIFICATION_TYPE":"U","NORAD_CAT_ID":64924,"ELEMENT_SET_NO":999,"REV_AT_EPOCH":3809,"BSTAR":0.0007458619,"MEAN_MOTION_DOT":0.00021786,"MEAN_MOTION_DDOT":0},{"OBJECT_NAME":"STARLINK-34579","OBJECT_ID":"2025-157X","EPOCH":"2026-03-22T19:38:13.642080","MEAN_MOTION":15.30181343,"ECCENTRICITY":7.228e-5,"INCLINATION":53.159,"RA_OF_ASC_NODE":284.6966,"ARG_OF_PERICENTER":88.3042,"MEAN_ANOMALY":271.8042,"EPHEMERIS_TYPE":0,"CLASSIFICATION_TYPE":"U","NORAD_CAT_ID":64925,"ELEMENT_SET_NO":999,"REV_AT_EPOCH":3813,"BSTAR":0.0012398493,"MEAN_MOTION_DOT":0.00036521,"MEAN_MOTION_DDOT":0},{"OBJECT_NAME":"STARLINK-34543","OBJECT_ID":"2025-157Y","EPOCH":"2026-03-22T21:53:18.291264","MEAN_MOTION":15.30178332,"ECCENTRICITY":0.00011653,"INCLINATION":53.1572,"RA_OF_ASC_NODE":284.5684,"ARG_OF_PERICENTER":71.1454,"MEAN_ANOMALY":288.9673,"EPHEMERIS_TYPE":0,"CLASSIFICATION_TYPE":"U","NORAD_CAT_ID":64926,"ELEMENT_SET_NO":999,"REV_AT_EPOCH":3809,"BSTAR":0.000952617,"MEAN_MOTION_DOT":0.00027942,"MEAN_MOTION_DDOT":0},{"OBJECT_NAME":"STARLINK-34661","OBJECT_ID":"2025-157Z","EPOCH":"2026-03-22T19:51:53.827776","MEAN_MOTION":15.30189601,"ECCENTRICITY":0.00012363,"INCLINATION":53.1595,"RA_OF_ASC_NODE":284.7474,"ARG_OF_PERICENTER":106.6361,"MEAN_ANOMALY":253.4776,"EPHEMERIS_TYPE":0,"CLASSIFICATION_TYPE":"U","NORAD_CAT_ID":64927,"ELEMENT_SET_NO":999,"REV_AT_EPOCH":3785,"BSTAR":0.00096065586,"MEAN_MOTION_DOT":0.00028192,"MEAN_MOTION_DDOT":0},{"OBJECT_NAME":"STARLINK-34248","OBJECT_ID":"2025-157AA","EPOCH":"2026-03-22T20:01:01.317792","MEAN_MOTION":15.30176492,"ECCENTRICITY":0.00011966,"INCLINATION":53.1583,"RA_OF_ASC_NODE":284.794,"ARG_OF_PERICENTER":69.9668,"MEAN_ANOMALY":290.1461,"EPHEMERIS_TYPE":0,"CLASSIFICATION_TYPE":"U","NORAD_CAT_ID":64928,"ELEMENT_SET_NO":999,"REV_AT_EPOCH":3813,"BSTAR":0.00088755213,"MEAN_MOTION_DOT":0.00026,"MEAN_MOTION_DDOT":0},{"OBJECT_NAME":"STARLINK-34290","OBJECT_ID":"2025-157AB","EPOCH":"2026-03-22T19:44:17.844864","MEAN_MOTION":15.30204081,"ECCENTRICITY":0.00014322,"INCLINATION":53.1595,"RA_OF_ASC_NODE":284.7209,"ARG_OF_PERICENTER":101.7556,"MEAN_ANOMALY":258.3606,"EPHEMERIS_TYPE":0,"CLASSIFICATION_TYPE":"U","NORAD_CAT_ID":64929,"ELEMENT_SET_NO":999,"REV_AT_EPOCH":3813,"BSTAR":0.00086880311,"MEAN_MOTION_DOT":0.00025464,"MEAN_MOTION_DDOT":0},{"OBJECT_NAME":"STARLINK-34220","OBJECT_ID":"2025-157AC","EPOCH":"2026-03-22T22:18:58.499136","MEAN_MOTION":15.30177041,"ECCENTRICITY":9.734e-5,"INCLINATION":53.1558,"RA_OF_ASC_NODE":283.9624,"ARG_OF_PERICENTER":106.3539,"MEAN_ANOMALY":253.7569,"EPHEMERIS_TYPE":0,"CLASSIFICATION_TYPE":"U","NORAD_CAT_ID":64930,"ELEMENT_SET_NO":999,"REV_AT_EPOCH":3804,"BSTAR":0.00076201936,"MEAN_MOTION_DOT":0.00022261,"MEAN_MOTION_DDOT":0},{"OBJECT_NAME":"STARLINK-34715","OBJECT_ID":"2025-157AD","EPOCH":"2026-03-22T19:36:42.141024","MEAN_MOTION":15.30176926,"ECCENTRICITY":0.000144,"INCLINATION":53.1591,"RA_OF_ASC_NODE":284.6868,"ARG_OF_PERICENTER":105.6977,"MEAN_ANOMALY":254.4182,"EPHEMERIS_TYPE":0,"CLASSIFICATION_TYPE":"U","NORAD_CAT_ID":64931,"ELEMENT_SET_NO":999,"REV_AT_EPOCH":3813,"BSTAR":0.00064909643,"MEAN_MOTION_DOT":0.000189,"MEAN_MOTION_DDOT":0},{"OBJECT_NAME":"STARLINK-34705","OBJECT_ID":"2025-158A","EPOCH":"2026-03-22T20:30:46.614816","MEAN_MOTION":15.05652865,"ECCENTRICITY":0.00017583,"INCLINATION":97.6021,"RA_OF_ASC_NODE":307.003,"ARG_OF_PERICENTER":77.6992,"MEAN_ANOMALY":282.4432,"EPHEMERIS_TYPE":0,"CLASSIFICATION_TYPE":"U","NORAD_CAT_ID":64932,"ELEMENT_SET_NO":999,"REV_AT_EPOCH":3733,"BSTAR":0.00027641109,"MEAN_MOTION_DOT":3.93e-5,"MEAN_MOTION_DDOT":0},{"OBJECT_NAME":"STARLINK-34737","OBJECT_ID":"2025-158B","EPOCH":"2026-03-22T13:52:01.780032","MEAN_MOTION":15.05651131,"ECCENTRICITY":0.00019204,"INCLINATION":97.6029,"RA_OF_ASC_NODE":306.757,"ARG_OF_PERICENTER":68.8741,"MEAN_ANOMALY":291.269,"EPHEMERIS_TYPE":0,"CLASSIFICATION_TYPE":"U","NORAD_CAT_ID":64933,"ELEMENT_SET_NO":999,"REV_AT_EPOCH":3729,"BSTAR":0.00019425912,"MEAN_MOTION_DOT":2.743e-5,"MEAN_MOTION_DDOT":0},{"OBJECT_NAME":"STARLINK-34775","OBJECT_ID":"2025-158C","EPOCH":"2026-03-22T21:46:32.700288","MEAN_MOTION":15.05652707,"ECCENTRICITY":0.00023409,"INCLINATION":97.6026,"RA_OF_ASC_NODE":307.0961,"ARG_OF_PERICENTER":85.5197,"MEAN_ANOMALY":274.6297,"EPHEMERIS_TYPE":0,"CLASSIFICATION_TYPE":"U","NORAD_CAT_ID":64934,"ELEMENT_SET_NO":999,"REV_AT_EPOCH":3734,"BSTAR":0.00028072796,"MEAN_MOTION_DOT":3.993e-5,"MEAN_MOTION_DDOT":0},{"OBJECT_NAME":"STARLINK-34726","OBJECT_ID":"2025-158D","EPOCH":"2026-03-22T21:14:39.126048","MEAN_MOTION":15.05654841,"ECCENTRICITY":0.00024488,"INCLINATION":97.601,"RA_OF_ASC_NODE":307.1274,"ARG_OF_PERICENTER":75.5526,"MEAN_ANOMALY":284.5972,"EPHEMERIS_TYPE":0,"CLASSIFICATION_TYPE":"U","NORAD_CAT_ID":64935,"ELEMENT_SET_NO":999,"REV_AT_EPOCH":3734,"BSTAR":0.0003568809,"MEAN_MOTION_DOT":5.093e-5,"MEAN_MOTION_DDOT":0}]
