STARLINK-34069          
1 64920U 25157S   26081.83826202  .00032606  00000+0  11088-2 0  9995
2 64920  53.1574 284.8252 0000994  81.5690 278.5424 15.30182070 38134
STARLINK-34699          
1 64921U 25157T   26081.83192255  .00025577  00000+0  87280-3 0  9997
2 64921  53.1590 284.7849 0001127  96.6732 263.4398 15.30196241 38135
STARLINK-34700          
1 64922U 25157U   26081.81187841  .00036845  00000+0  12504-2 0  9997
2 64922  53.1591 284.6579 0001141 102.5428 257.5701 15.30188737 38088
STARLINK-34643          
1 64923U 25157V   26081.84037003  .00033320  00000+0  11330-2 0  9996
2 64923  53.1573 284.8334 0001154  99.3201 260.7930 15.30173417 38131
STARLINK-34199          
1 64924U 25157W   26081.86136435  .00021786  00000+0  74586-3 0  9994
2 64924  53.1572 284.2548 0001392  97.0084 263.1076 15.30185310 38098
STARLINK-34579          
1 64925U 25157X   26081.81821345  .00036521  00000+0  12398-2 0  9996
2 64925  53.1590 284.6966 0000722  88.3042 271.8042 15.30181343 38136
STARLINK-34543          
1 64926U 25157Y   26081.91201726  .00027942  00000+0  95262-3 0  9992
2 64926  53.1572 284.5684 0001165  71.1454 288.9673 15.30178332 38090
STARLINK-34661          
1 64927U 25157Z   26081.82770634  .00028192  00000+0  96066-3 0  9993
2 64927  53.1595 284.7474 0001236 106.6361 253.4776 15.30189601 37850
STARLINK-34248          
1 64928U 25157AA  26081.83404303  .00026000  00000+0  88755-3 0  9994
2 64928  53.1583 284.7940 0001196  69.9668 290.1461 15.30176492 38137
STARLINK-34290          
1 64929U 25157AB  26081.82242876  .00025464  00000+0  86880-3 0  9999
2 64929  53.1595 284.7209 0001432 101.7556 258.3606 15.30204081 38136
STARLINK-34220          
1 64930U 25157AC  26081.92984374  .00022261  00000+0  76202-3 0  9997
2 64930  53.1558 283.9624 0000973 106.3539 253.7569 15.30177041 38042
STARLINK-34715          
1 64931U 25157AD  26081.81715441  .00018900  00000+0  64910-3 0  9991
2 64931  53.1591 284.6868 0001440 105.6977 254.4182 15.30176926 38136
STARLINK-34705          
1 64932U 25158A   26081.85470619  .00003930  00000+0  27641-3 0  9999
2 64932  97.6021 307.0030 0001758  77.6992 282.4432 15.05652865 37339
STARLINK-34737          
1 64933U 25158B   26081.57779838  .00002743  00000+0  19426-3 0  9997
2 64933  97.6029 306.7570 0001920  68.8741 291.2690 15.05651131 37292
STARLINK-34775          
1 64934U 25158C   26081.90732292  .00003993  00000+0  28073-3 0  9994
2 64934  97.6026 307.0961 0002340  85.5197 274.6297 15.05652707 37340
STARLINK-34726          
1 64935U 25158D   26081.88517507  .00005093  00000+0  35688-3 0  9995
2 64935  97.6010 307.1274 0002448  75.5526 284.5972 15.05654841 37347
